{
  "links" : {
    "next" : "https://api.nasa.gov/neo/rest/v1/feed?start_date=2015-09-16&end_date=2015-09-16&detailed=true&api_key=t0TVs3DtDT2H8Oy2Zy8m2eVrNsAVKAexjcZXUckd",
    "prev" : "https://api.nasa.gov/neo/rest/v1/feed?start_date=2015-09-14&end_date=2015-09-14&detailed=true&api_key=t0TVs3DtDT2H8Oy2Zy8m2eVrNsAVKAexjcZXUckd",
    "self" : "https://api.nasa.gov/neo/rest/v1/feed?start_date=2015-09-15&end_date=2015-09-15&detailed=true&api_key=t0TVs3DtDT2H8Oy2Zy8m2eVrNsAVKAexjcZXUckd"
  },
  "element_count" : 11,
  "near_earth_objects" : {
    "2015-09-15" : [ {
      "links" : {
        "self" : "https://api.nasa.gov/neo/rest/v1/neo/3345301?api_key=t0TVs3DtDT2H8Oy2Zy8m2eVrNsAVKAexjcZXUckd"
      },
      "neo_reference_id" : "3345301",
      "name" : "(2006 SQ131)",
      "nasa_jpl_url" : "http://ssd.jpl.nasa.gov/sbdb.cgi?sstr=3345301",
      "absolute_magnitude_h" : 22.6,
      "estimated_diameter" : {
        "kilometers" : {
          "estimated_diameter_min" : 0.0802703167,
          "estimated_diameter_max" : 0.1794898848
        },
        "meters" : {
          "estimated_diameter_min" : 80.2703167283,
          "estimated_diameter_max" : 179.4898847799
        },
        "miles" : {
          "estimated_diameter_min" : 0.049877647,
          "estimated_diameter_max" : 0.1115298092
        },
        "feet" : {
          "estimated_diameter_min" : 263.3540659348,
          "estimated_diameter_max" : 588.8775935812
        }
      },
      "is_potentially_hazardous_asteroid" : false,
      "close_approach_data" : [ {
        "close_approach_date" : "2015-09-15",
        "epoch_date_close_approach" : 1442300400000,
        "relative_velocity" : {
          "kilometers_per_second" : "7.5792302493",
          "kilometers_per_hour" : "27285.2288975083",
          "miles_per_hour" : "16953.9801446768"
        },
        "miss_distance" : {
          "astronomical" : "0.2453337485",
          "lunar" : "95.4348297119",
          "kilometers" : "36701408",
          "miles" : "22805196"
        },
        "orbiting_body" : "Earth"
      } ],
      "orbital_data" : {
        "orbit_id" : "10",
        "orbit_determination_date" : "2017-04-06 09:08:03",
        "orbit_uncertainty" : "7",
        "minimum_orbit_intersection" : ".196213",
        "jupiter_tisserand_invariant" : "4.090",
        "epoch_osculation" : "2458000.5",
        "eccentricity" : ".305365761964529",
        "semi_major_axis" : "1.722002693999244",
        "inclination" : "12.84628738092724",
        "ascending_node_longitude" : "184.962354205721",
        "orbital_period" : "825.3709261419583",
        "perihelion_distance" : "1.196162029241194",
        "perihelion_argument" : "166.510278435459",
        "aphelion_distance" : "2.247843358757295",
        "perihelion_time" : "2458114.200699970426",
        "mean_anomaly" : "310.4074462851707",
        "mean_motion" : ".4361675321939828",
        "equinox" : "J2000"
      }
    }, {
      "links" : {
        "self" : "https://api.nasa.gov/neo/rest/v1/neo/3712033?api_key=t0TVs3DtDT2H8Oy2Zy8m2eVrNsAVKAexjcZXUckd"
      },
      "neo_reference_id" : "3712033",
      "name" : "(2015 DB156)",
      "nasa_jpl_url" : "http://ssd.jpl.nasa.gov/sbdb.cgi?sstr=3712033",
      "absolute_magnitude_h" : 24.9,
      "estimated_diameter" : {
        "kilometers" : {
          "estimated_diameter_min" : 0.0278326768,
          "estimated_diameter_max" : 0.0622357573
        },
        "meters" : {
          "estimated_diameter_min" : 27.8326768072,
          "estimated_diameter_max" : 62.2357573367
        },
        "miles" : {
          "estimated_diameter_min" : 0.0172944182,
          "estimated_diameter_max" : 0.0386714948
        },
        "feet" : {
          "estimated_diameter_min" : 91.3145593761,
          "estimated_diameter_max" : 204.1855621004
        }
      },
      "is_potentially_hazardous_asteroid" : false,
      "close_approach_data" : [ {
        "close_approach_date" : "2015-09-15",
        "epoch_date_close_approach" : 1442300400000,
        "relative_velocity" : {
          "kilometers_per_second" : "18.3393592407",
          "kilometers_per_hour" : "66021.6932663544",
          "miles_per_hour" : "41023.3126854189"
        },
        "miss_distance" : {
          "astronomical" : "0.3718331512",
          "lunar" : "144.6430969238",
          "kilometers" : "55625448",
          "miles" : "34564052"
        },
        "orbiting_body" : "Earth"
      } ],
      "orbital_data" : {
        "orbit_id" : "5",
        "orbit_determination_date" : "2017-04-06 08:35:28",
        "orbit_uncertainty" : "8",
        "minimum_orbit_intersection" : ".0822166",
        "jupiter_tisserand_invariant" : "6.363",
        "epoch_osculation" : "2457077.5",
        "eccentricity" : ".2897936120016645",
        "semi_major_axis" : ".9234384065839745",
        "inclination" : "25.43100880601823",
        "ascending_node_longitude" : "149.4104980310856",
        "orbital_period" : "324.1233558423021",
        "perihelion_distance" : ".6558318552789429",
        "perihelion_argument" : "220.7047861522195",
        "aphelion_distance" : "1.191044957889006",
        "perihelion_time" : "2456969.504500413622",
        "mean_anomaly" : "119.949331482338",
        "mean_motion" : "1.110688241100259",
        "equinox" : "J2000"
      }
    }, {
      "links" : {
        "self" : "https://api.nasa.gov/neo/rest/v1/neo/3728646?api_key=t0TVs3DtDT2H8Oy2Zy8m2eVrNsAVKAexjcZXUckd"
      },
      "neo_reference_id" : "3728646",
      "name" : "(2015 SW6)",
      "nasa_jpl_url" : "http://ssd.jpl.nasa.gov/sbdb.cgi?sstr=3728646",
      "absolute_magnitude_h" : 24.6,
      "estimated_diameter" : {
        "kilometers" : {
          "estimated_diameter_min" : 0.0319561887,
          "estimated_diameter_max" : 0.0714562102
        },
        "meters" : {
          "estimated_diameter_min" : 31.9561886721,
          "estimated_diameter_max" : 71.4562101727
        },
        "miles" : {
          "estimated_diameter_min" : 0.0198566489,
          "estimated_diameter_max" : 0.0444008168
        },
        "feet" : {
          "estimated_diameter_min" : 104.8431420431,
          "estimated_diameter_max" : 234.436392583
        }
      },
      "is_potentially_hazardous_asteroid" : false,
      "close_approach_data" : [ {
        "close_approach_date" : "2015-09-15",
        "epoch_date_close_approach" : 1442300400000,
        "relative_velocity" : {
          "kilometers_per_second" : "11.1692850731",
          "kilometers_per_hour" : "40209.4262631251",
          "miles_per_hour" : "24984.5737799957"
        },
        "miss_distance" : {
          "astronomical" : "0.0276462882",
          "lunar" : "10.7544059753",
          "kilometers" : "4135826",
          "miles" : "2569883"
        },
        "orbiting_body" : "Earth"
      } ],
      "orbital_data" : {
        "orbit_id" : "13",
        "orbit_determination_date" : "2017-04-06 08:31:46",
        "orbit_uncertainty" : "7",
        "minimum_orbit_intersection" : ".0221802",
        "jupiter_tisserand_invariant" : "3.558",
        "epoch_osculation" : "2458000.5",
        "eccentricity" : ".5367381930943007",
        "semi_major_axis" : "2.079040635029718",
        "inclination" : "8.408782179673105",
        "ascending_node_longitude" : "356.3050199064058",
        "orbital_period" : "1094.946484300313",
        "perihelion_distance" : ".9631401212142396",
        "perihelion_argument" : "320.3877974213888",
        "aphelion_distance" : "3.194941148845197",
        "perihelion_time" : "2458347.745421687162",
        "mean_anomaly" : "245.8315419065794",
        "mean_motion" : ".3287831918379513",
        "equinox" : "J2000"
      }
    } ]
  }
}